<?xml version="1.0" encoding="UTF-8"?>
<ndm xmlns:xsi="http://www.w3.org/2001/XMLSchema-instance" xsi:noNamespaceSchemaLocation="https://sanaregistry.org/r/ndmxml_unqualified/ndmxml-2.0.0-master-2.0.xsd">
<omm id="CCSDS_OMM_VERS" version="2.0">
<header><CREATION_DATE/><ORIGINATOR/></header><body><segment><metadata><OBJECT_NAME>ORBCOMM FM05</OBJECT_NAME><OBJECT_ID>1997-084F</OBJECT_ID><CENTER_NAME>EARTH</CENTER_NAME><REF_FRAME>TEME</REF_FRAME><TIME_SYSTEM>UTC</TIME_SYSTEM><MEAN_ELEMENT_THEORY>SGP4</MEAN_ELEMENT_THEORY></metadata><data><meanElements><EPOCH>2025-11-18T17:56:33.522144</EPOCH><MEAN_MOTION>14.46584225</MEAN_MOTION><ECCENTRICITY>.00045652</ECCENTRICITY><INCLINATION>45.0151</INCLINATION><RA_OF_ASC_NODE>345.6471</RA_OF_ASC_NODE><ARG_OF_PERICENTER>273.6643</ARG_OF_PERICENTER><MEAN_ANOMALY>86.3686</MEAN_ANOMALY></meanElements><tleParameters><EPHEMERIS_TYPE>0</EPHEMERIS_TYPE><CLASSIFICATION_TYPE>U</CLASSIFICATION_TYPE><NORAD_CAT_ID>25117</NORAD_CAT_ID><ELEMENT_SET_NO>999</ELEMENT_SET_NO><REV_AT_EPOCH>46298</REV_AT_EPOCH><BSTAR>.64147699E-3</BSTAR><MEAN_MOTION_DOT>.2191E-4</MEAN_MOTION_DOT><MEAN_MOTION_DDOT>0</MEAN_MOTION_DDOT></tleParameters></data></segment></body></omm>
<omm id="CCSDS_OMM_VERS" version="2.0">
<header><CREATION_DATE/><ORIGINATOR/></header><body><segment><metadata><OBJECT_NAME>ORBCOMM FM06</OBJECT_NAME><OBJECT_ID>1997-084G</OBJECT_ID><CENTER_NAME>EARTH</CENTER_NAME><REF_FRAME>TEME</REF_FRAME><TIME_SYSTEM>UTC</TIME_SYSTEM><MEAN_ELEMENT_THEORY>SGP4</MEAN_ELEMENT_THEORY></metadata><data><meanElements><EPOCH>2025-11-18T06:12:55.127232</EPOCH><MEAN_MOTION>14.46735475</MEAN_MOTION><ECCENTRICITY>.00035246</ECCENTRICITY><INCLINATION>45.0143</INCLINATION><RA_OF_ASC_NODE>347.5516</RA_OF_ASC_NODE><ARG_OF_PERICENTER>270.9629</ARG_OF_PERICENTER><MEAN_ANOMALY>184.1033</MEAN_ANOMALY></meanElements><tleParameters><EPHEMERIS_TYPE>0</EPHEMERIS_TYPE><CLASSIFICATION_TYPE>U</CLASSIFICATION_TYPE><NORAD_CAT_ID>25118</NORAD_CAT_ID><ELEMENT_SET_NO>999</ELEMENT_SET_NO><REV_AT_EPOCH>46383</REV_AT_EPOCH><BSTAR>.72749043E-3</BSTAR><MEAN_MOTION_DOT>.2513E-4</MEAN_MOTION_DOT><MEAN_MOTION_DDOT>0</MEAN_MOTION_DDOT></tleParameters></data></segment></body></omm>
<omm id="CCSDS_OMM_VERS" version="2.0">
<header><CREATION_DATE/><ORIGINATOR/></header><body><segment><metadata><OBJECT_NAME>ORBCOMM FM07</OBJECT_NAME><OBJECT_ID>1997-084H</OBJECT_ID><CENTER_NAME>EARTH</CENTER_NAME><REF_FRAME>TEME</REF_FRAME><TIME_SYSTEM>UTC</TIME_SYSTEM><MEAN_ELEMENT_THEORY>SGP4</MEAN_ELEMENT_THEORY></metadata><data><meanElements><EPOCH>2025-11-17T18:28:41.738592</EPOCH><MEAN_MOTION>14.46746419</MEAN_MOTION><ECCENTRICITY>.00053839</ECCENTRICITY><INCLINATION>45.0138</INCLINATION><RA_OF_ASC_NODE>350.6560</RA_OF_ASC_NODE><ARG_OF_PERICENTER>266.6685</ARG_OF_PERICENTER><MEAN_ANOMALY>93.3551</MEAN_ANOMALY></meanElements><tleParameters><EPHEMERIS_TYPE>0</EPHEMERIS_TYPE><CLASSIFICATION_TYPE>U</CLASSIFICATION_TYPE><NORAD_CAT_ID>25119</NORAD_CAT_ID><ELEMENT_SET_NO>999</ELEMENT_SET_NO><REV_AT_EPOCH>46375</REV_AT_EPOCH><BSTAR>.77109084E-3</BSTAR><MEAN_MOTION_DOT>.2673E-4</MEAN_MOTION_DOT><MEAN_MOTION_DDOT>0</MEAN_MOTION_DDOT></tleParameters></data></segment></body></omm>
<omm id="CCSDS_OMM_VERS" version="2.0">
<header><CREATION_DATE/><ORIGINATOR/></header><body><segment><metadata><OBJECT_NAME>ORBCOMM FM03</OBJECT_NAME><OBJECT_ID>1998-007B</OBJECT_ID><CENTER_NAME>EARTH</CENTER_NAME><REF_FRAME>TEME</REF_FRAME><TIME_SYSTEM>UTC</TIME_SYSTEM><MEAN_ELEMENT_THEORY>SGP4</MEAN_ELEMENT_THEORY></metadata><data><meanElements><EPOCH>2025-11-19T06:20:11.557824</EPOCH><MEAN_MOTION>14.34935602</MEAN_MOTION><ECCENTRICITY>.0045178</ECCENTRICITY><INCLINATION>107.9638</INCLINATION><RA_OF_ASC_NODE>94.2374</RA_OF_ASC_NODE><ARG_OF_PERICENTER>334.4383</ARG_OF_PERICENTER><MEAN_ANOMALY>25.4524</MEAN_ANOMALY></meanElements><tleParameters><EPHEMERIS_TYPE>0</EPHEMERIS_TYPE><CLASSIFICATION_TYPE>U</CLASSIFICATION_TYPE><NORAD_CAT_ID>25158</NORAD_CAT_ID><ELEMENT_SET_NO>999</ELEMENT_SET_NO><REV_AT_EPOCH>44628</REV_AT_EPOCH><BSTAR>.6084941E-3</BSTAR><MEAN_MOTION_DOT>.1621E-4</MEAN_MOTION_DOT><MEAN_MOTION_DDOT>0</MEAN_MOTION_DDOT></tleParameters></data></segment></body></omm>
<omm id="CCSDS_OMM_VERS" version="2.0">
<header><CREATION_DATE/><ORIGINATOR/></header><body><segment><metadata><OBJECT_NAME>ORBCOMM FM04</OBJECT_NAME><OBJECT_ID>1998-007C</OBJECT_ID><CENTER_NAME>EARTH</CENTER_NAME><REF_FRAME>TEME</REF_FRAME><TIME_SYSTEM>UTC</TIME_SYSTEM><MEAN_ELEMENT_THEORY>SGP4</MEAN_ELEMENT_THEORY></metadata><data><meanElements><EPOCH>2025-11-19T06:59:40.733088</EPOCH><MEAN_MOTION>14.35179898</MEAN_MOTION><ECCENTRICITY>.00410432</ECCENTRICITY><INCLINATION>107.9637</INCLINATION><RA_OF_ASC_NODE>97.6195</RA_OF_ASC_NODE><ARG_OF_PERICENTER>331.4674</ARG_OF_PERICENTER><MEAN_ANOMALY>28.4221</MEAN_ANOMALY></meanElements><tleParameters><EPHEMERIS_TYPE>0</EPHEMERIS_TYPE><CLASSIFICATION_TYPE>U</CLASSIFICATION_TYPE><NORAD_CAT_ID>25159</NORAD_CAT_ID><ELEMENT_SET_NO>999</ELEMENT_SET_NO><REV_AT_EPOCH>44647</REV_AT_EPOCH><BSTAR>.5733149E-3</BSTAR><MEAN_MOTION_DOT>.1524E-4</MEAN_MOTION_DOT><MEAN_MOTION_DDOT>0</MEAN_MOTION_DDOT></tleParameters></data></segment></body></omm>
<omm id="CCSDS_OMM_VERS" version="2.0">
<header><CREATION_DATE/><ORIGINATOR/></header><body><segment><metadata><OBJECT_NAME>ORBCOMM FM17</OBJECT_NAME><OBJECT_ID>1998-046A</OBJECT_ID><CENTER_NAME>EARTH</CENTER_NAME><REF_FRAME>TEME</REF_FRAME><TIME_SYSTEM>UTC</TIME_SYSTEM><MEAN_ELEMENT_THEORY>SGP4</MEAN_ELEMENT_THEORY></metadata><data><meanElements><EPOCH>2025-11-19T01:34:17.860800</EPOCH><MEAN_MOTION>14.35469375</MEAN_MOTION><ECCENTRICITY>.00038495</ECCENTRICITY><INCLINATION>44.9938</INCLINATION><RA_OF_ASC_NODE>246.4803</RA_OF_ASC_NODE><ARG_OF_PERICENTER>292.2156</ARG_OF_PERICENTER><MEAN_ANOMALY>67.8283</MEAN_ANOMALY></meanElements><tleParameters><EPHEMERIS_TYPE>0</EPHEMERIS_TYPE><CLASSIFICATION_TYPE>U</CLASSIFICATION_TYPE><NORAD_CAT_ID>25413</NORAD_CAT_ID><ELEMENT_SET_NO>999</ELEMENT_SET_NO><REV_AT_EPOCH>42542</REV_AT_EPOCH><BSTAR>.39615157E-3</BSTAR><MEAN_MOTION_DOT>.1008E-4</MEAN_MOTION_DOT><MEAN_MOTION_DDOT>0</MEAN_MOTION_DDOT></tleParameters></data></segment></body></omm>
<omm id="CCSDS_OMM_VERS" version="2.0">
<header><CREATION_DATE/><ORIGINATOR/></header><body><segment><metadata><OBJECT_NAME>ORBCOMM FM18</OBJECT_NAME><OBJECT_ID>1998-046B</OBJECT_ID><CENTER_NAME>EARTH</CENTER_NAME><REF_FRAME>TEME</REF_FRAME><TIME_SYSTEM>UTC</TIME_SYSTEM><MEAN_ELEMENT_THEORY>SGP4</MEAN_ELEMENT_THEORY></metadata><data><meanElements><EPOCH>2025-11-19T06:19:31.388736</EPOCH><MEAN_MOTION>14.39053618</MEAN_MOTION><ECCENTRICITY>.00043441</ECCENTRICITY><INCLINATION>44.9901</INCLINATION><RA_OF_ASC_NODE>158.7346</RA_OF_ASC_NODE><ARG_OF_PERICENTER>352.2568</ARG_OF_PERICENTER><MEAN_ANOMALY>7.8213</MEAN_ANOMALY></meanElements><tleParameters><EPHEMERIS_TYPE>0</EPHEMERIS_TYPE><CLASSIFICATION_TYPE>U</CLASSIFICATION_TYPE><NORAD_CAT_ID>25414</NORAD_CAT_ID><ELEMENT_SET_NO>999</ELEMENT_SET_NO><REV_AT_EPOCH>42658</REV_AT_EPOCH><BSTAR>.42673968E-3</BSTAR><MEAN_MOTION_DOT>.1188E-4</MEAN_MOTION_DOT><MEAN_MOTION_DDOT>0</MEAN_MOTION_DDOT></tleParameters></data></segment></body></omm>
<omm id="CCSDS_OMM_VERS" version="2.0">
<header><CREATION_DATE/><ORIGINATOR/></header><body><segment><metadata><OBJECT_NAME>ORBCOMM FM19</OBJECT_NAME><OBJECT_ID>1998-046C</OBJECT_ID><CENTER_NAME>EARTH</CENTER_NAME><REF_FRAME>TEME</REF_FRAME><TIME_SYSTEM>UTC</TIME_SYSTEM><MEAN_ELEMENT_THEORY>SGP4</MEAN_ELEMENT_THEORY></metadata><data><meanElements><EPOCH>2025-11-19T06:19:29.796384</EPOCH><MEAN_MOTION>14.38874232</MEAN_MOTION><ECCENTRICITY>.00031332</ECCENTRICITY><INCLINATION>44.9909</INCLINATION><RA_OF_ASC_NODE>160.9729</RA_OF_ASC_NODE><ARG_OF_PERICENTER>348.8897</ARG_OF_PERICENTER><MEAN_ANOMALY>181.8499</MEAN_ANOMALY></meanElements><tleParameters><EPHEMERIS_TYPE>0</EPHEMERIS_TYPE><CLASSIFICATION_TYPE>U</CLASSIFICATION_TYPE><NORAD_CAT_ID>25415</NORAD_CAT_ID><ELEMENT_SET_NO>999</ELEMENT_SET_NO><REV_AT_EPOCH>42653</REV_AT_EPOCH><BSTAR>.48072614E-3</BSTAR><MEAN_MOTION_DOT>.1351E-4</MEAN_MOTION_DOT><MEAN_MOTION_DDOT>0</MEAN_MOTION_DDOT></tleParameters></data></segment></body></omm>

</ndm>
