ORBCOMM FM05            
1 25117U 97084F   25322.74761021  .00002191  00000+0  64148-3 0  9994
2 25117  45.0151 345.6471 0004565 273.6643  86.3686 14.46584225462982
ORBCOMM FM06            
1 25118U 97084G   25322.25897138  .00002513  00000+0  72749-3 0  9994
2 25118  45.0143 347.5516 0003524 270.9629 184.1033 14.46735475463836
ORBCOMM FM07            
1 25119U 97084H   25321.76992753  .00002673  00000+0  77109-3 0  9991
2 25119  45.0138 350.6560 0005383 266.6685  93.3551 14.46746419463751
ORBCOMM FM03            
1 25158U 98007B   25323.26402266  .00001621  00000+0  60849-3 0  9997
2 25158 107.9638  94.2374 0045178 334.4383  25.4524 14.34935602446282
ORBCOMM FM04            
1 25159U 98007C   25323.29144367  .00001524  00000+0  57331-3 0  9990
2 25159 107.9637  97.6195 0041043 331.4674  28.4221 14.35179898446473
ORBCOMM FM17            
1 25413U 98046A   25323.06548450  .00001008  00000+0  39615-3 0  9994
2 25413  44.9938 246.4803 0003849 292.2156  67.8283 14.35469375425420
ORBCOMM FM18            
1 25414U 98046B   25323.26355774  .00001188  00000+0  42674-3 0  9990
2 25414  44.9901 158.7346 0004344 352.2568   7.8213 14.39053618426581
ORBCOMM FM19            
1 25415U 98046C   25323.26353931  .00001351  00000+0  48073-3 0  9995
2 25415  44.9909 160.9729 0003133 348.8897 181.8499 14.38874232426537
